HYPERFIELD-1A           
1 60562U 24149CY  26068.76488211  .00008569  00000+0  30052-3 0  9998
2 60562  97.3842 149.5066 0003865 313.7844  46.3076 15.29681349 86836
STARLINK-34040          
1 63839U 25093D   26068.43189080  .00028192  00000+0  10300-2 0  9990
2 63839  43.0021  79.2819 0001168 264.7212  95.3506 15.27581833 47931
